[{"OBJECT_NAME":"STARLINK-32674","OBJECT_ID":"2024-251C","EPOCH":"2026-01-02T01:49:44.865408","MEAN_MOTION":15.30187076,"ECCENTRICITY":0.00011976,"INCLINATION":53.1592,"RA_OF_ASC_NODE":284.431,"ARG_OF_PERICENTER":87.0759,"MEAN_ANOMALY":273.0378,"EPHEMERIS_TYPE":0,"CLASSIFICATION_TYPE":"U","NORAD_CAT_ID":62434,"ELEMENT_SET_NO":999,"REV_AT_EPOCH":5775,"BSTAR":0.0017411364,"MEAN_MOTION_DOT":0.00051546,"MEAN_MOTION_DDOT":0},{"OBJECT_NAME":"STARLINK-32711","OBJECT_ID":"2024-251D","EPOCH":"2026-01-02T04:13:57.885888","MEAN_MOTION":15.30157584,"ECCENTRICITY":0.00012357,"INCLINATION":53.1607,"RA_OF_ASC_NODE":284.343,"ARG_OF_PERICENTER":71.8803,"MEAN_ANOMALY":288.2333,"EPHEMERIS_TYPE":0,"CLASSIFICATION_TYPE":"U","NORAD_CAT_ID":62435,"ELEMENT_SET_NO":999,"REV_AT_EPOCH":5776,"BSTAR":0.0017954598,"MEAN_MOTION_DOT":0.00053128,"MEAN_MOTION_DDOT":0},{"OBJECT_NAME":"STARLINK-32697","OBJECT_ID":"2024-251E","EPOCH":"2026-01-02T03:55:42.633696","MEAN_MOTION":15.30206594,"ECCENTRICITY":9.992e-5,"INCLINATION":53.1617,"RA_OF_ASC_NODE":284.2647,"ARG_OF_PERICENTER":54.9583,"MEAN_ANOMALY":305.1512,"EPHEMERIS_TYPE":0,"CLASSIFICATION_TYPE":"U","NORAD_CAT_ID":62436,"ELEMENT_SET_NO":999,"REV_AT_EPOCH":5776,"BSTAR":0.0014219874,"MEAN_MOTION_DOT":0.00042003,"MEAN_MOTION_DDOT":0},{"OBJECT_NAME":"STARLINK-32693","OBJECT_ID":"2024-251F","EPOCH":"2026-01-02T04:29:43.177920","MEAN_MOTION":15.30207247,"ECCENTRICITY":0.0001259,"INCLINATION":53.1586,"RA_OF_ASC_NODE":281.5,"ARG_OF_PERICENTER":80.6267,"MEAN_ANOMALY":279.4876,"EPHEMERIS_TYPE":0,"CLASSIFICATION_TYPE":"U","NORAD_CAT_ID":62437,"ELEMENT_SET_NO":999,"REV_AT_EPOCH":5780,"BSTAR":0.0021628,"MEAN_MOTION_DOT":0.00064265,"MEAN_MOTION_DDOT":0},{"OBJECT_NAME":"STARLINK-32721","OBJECT_ID":"2024-251G","EPOCH":"2026-01-02T03:45:04.292352","MEAN_MOTION":15.30206821,"ECCENTRICITY":9.993e-5,"INCLINATION":53.161,"RA_OF_ASC_NODE":284.2141,"ARG_OF_PERICENTER":75.9566,"MEAN_ANOMALY":284.1546,"EPHEMERIS_TYPE":0,"CLASSIFICATION_TYPE":"U","NORAD_CAT_ID":62438,"ELEMENT_SET_NO":999,"REV_AT_EPOCH":5770,"BSTAR":0.0013587378,"MEAN_MOTION_DOT":0.00040109,"MEAN_MOTION_DDOT":0},{"OBJECT_NAME":"STARLINK-32709","OBJECT_ID":"2024-251H","EPOCH":"2026-01-02T01:34:42.670560","MEAN_MOTION":15.30189408,"ECCENTRICITY":0.00010416,"INCLINATION":53.1586,"RA_OF_ASC_NODE":285.0755,"ARG_OF_PERICENTER":105.897,"MEAN_ANOMALY":254.2146,"EPHEMERIS_TYPE":0,"CLASSIFICATION_TYPE":"U","NORAD_CAT_ID":62439,"ELEMENT_SET_NO":999,"REV_AT_EPOCH":5774,"BSTAR":0.0014493494,"MEAN_MOTION_DOT":0.000428,"MEAN_MOTION_DDOT":0},{"OBJECT_NAME":"STARLINK-32689","OBJECT_ID":"2024-251J","EPOCH":"2026-01-02T01:43:38.478432","MEAN_MOTION":15.30138604,"ECCENTRICITY":0.00016852,"INCLINATION":53.1597,"RA_OF_ASC_NODE":284.4023,"ARG_OF_PERICENTER":67.6798,"MEAN_ANOMALY":292.4381,"EPHEMERIS_TYPE":0,"CLASSIFICATION_TYPE":"U","NORAD_CAT_ID":62440,"ELEMENT_SET_NO":999,"REV_AT_EPOCH":5775,"BSTAR":0.0012905482,"MEAN_MOTION_DOT":0.00037986,"MEAN_MOTION_DDOT":0},{"OBJECT_NAME":"STARLINK-32724","OBJECT_ID":"2024-251K","EPOCH":"2026-01-02T17:54:35.322624","MEAN_MOTION":15.30217893,"ECCENTRICITY":0.0001394,"INCLINATION":53.162,"RA_OF_ASC_NODE":281.4985,"ARG_OF_PERICENTER":141.1801,"MEAN_ANOMALY":218.93,"EPHEMERIS_TYPE":0,"CLASSIFICATION_TYPE":"U","NORAD_CAT_ID":62441,"ELEMENT_SET_NO":999,"REV_AT_EPOCH":5769,"BSTAR":0.0016427,"MEAN_MOTION_DOT":0.0004864,"MEAN_MOTION_DDOT":0},{"OBJECT_NAME":"STARLINK-32291","OBJECT_ID":"2024-251L","EPOCH":"2026-01-02T04:00:16.805952","MEAN_MOTION":15.30236345,"ECCENTRICITY":0.00017016,"INCLINATION":53.1623,"RA_OF_ASC_NODE":284.2828,"ARG_OF_PERICENTER":95.6642,"MEAN_ANOMALY":264.4553,"EPHEMERIS_TYPE":0,"CLASSIFICATION_TYPE":"U","NORAD_CAT_ID":62442,"ELEMENT_SET_NO":999,"REV_AT_EPOCH":5745,"BSTAR":0.001461582,"MEAN_MOTION_DOT":0.0004323,"MEAN_MOTION_DDOT":0},{"OBJECT_NAME":"STARLINK-32736","OBJECT_ID":"2024-251M","EPOCH":"2026-01-02T04:10:54.621984","MEAN_MOTION":15.30199712,"ECCENTRICITY":0.00013005,"INCLINATION":53.1609,"RA_OF_ASC_NODE":284.3317,"ARG_OF_PERICENTER":73.6579,"MEAN_ANOMALY":286.4565,"EPHEMERIS_TYPE":0,"CLASSIFICATION_TYPE":"U","NORAD_CAT_ID":62443,"ELEMENT_SET_NO":999,"REV_AT_EPOCH":5760,"BSTAR":0.0018908927,"MEAN_MOTION_DOT":0.00056066,"MEAN_MOTION_DDOT":0},{"OBJECT_NAME":"STARLINK-32737","OBJECT_ID":"2024-251N","EPOCH":"2026-01-02T03:39:45.028800","MEAN_MOTION":15.30202522,"ECCENTRICITY":9.94e-5,"INCLINATION":53.1609,"RA_OF_ASC_NODE":282.0647,"ARG_OF_PERICENTER":71.8202,"MEAN_ANOMALY":288.2907,"EPHEMERIS_TYPE":0,"CLASSIFICATION_TYPE":"U","NORAD_CAT_ID":62444,"ELEMENT_SET_NO":999,"REV_AT_EPOCH":5779,"BSTAR":0.00098429292,"MEAN_MOTION_DOT":0.00028908,"MEAN_MOTION_DDOT":0},{"OBJECT_NAME":"STARLINK-32683","OBJECT_ID":"2024-251P","EPOCH":"2026-01-02T01:28:37.891488","MEAN_MOTION":15.30189377,"ECCENTRICITY":0.00011289,"INCLINATION":53.1595,"RA_OF_ASC_NODE":285.0433,"ARG_OF_PERICENTER":93.9573,"MEAN_ANOMALY":266.1557,"EPHEMERIS_TYPE":0,"CLASSIFICATION_TYPE":"U","NORAD_CAT_ID":62445,"ELEMENT_SET_NO":999,"REV_AT_EPOCH":5774,"BSTAR":0.0017395394,"MEAN_MOTION_DOT":0.00051502,"MEAN_MOTION_DDOT":0},{"OBJECT_NAME":"STARLINK-32726","OBJECT_ID":"2024-251Q","EPOCH":"2026-01-02T17:53:04.008192","MEAN_MOTION":15.30219957,"ECCENTRICITY":0.0001593,"INCLINATION":53.1589,"RA_OF_ASC_NODE":281.487,"ARG_OF_PERICENTER":140.2207,"MEAN_ANOMALY":219.8911,"EPHEMERIS_TYPE":0,"CLASSIFICATION_TYPE":"U","NORAD_CAT_ID":62446,"ELEMENT_SET_NO":999,"REV_AT_EPOCH":5754,"BSTAR":0.0011725,"MEAN_MOTION_DOT":0.00034549,"MEAN_MOTION_DDOT":0},{"OBJECT_NAME":"STARLINK-32730","OBJECT_ID":"2024-251R","EPOCH":"2026-01-02T03:35:57.136704","MEAN_MOTION":15.30200422,"ECCENTRICITY":9.961e-5,"INCLINATION":53.1587,"RA_OF_ASC_NODE":284.1755,"ARG_OF_PERICENTER":110.7739,"MEAN_ANOMALY":249.3369,"EPHEMERIS_TYPE":0,"CLASSIFICATION_TYPE":"U","NORAD_CAT_ID":62447,"ELEMENT_SET_NO":999,"REV_AT_EPOCH":5776,"BSTAR":0.0010489545,"MEAN_MOTION_DOT":0.00030837,"MEAN_MOTION_DDOT":0},{"OBJECT_NAME":"STARLINK-32719","OBJECT_ID":"2024-251S","EPOCH":"2026-01-02T01:57:28.001376","MEAN_MOTION":15.30173131,"ECCENTRICITY":5.992e-5,"INCLINATION":53.1595,"RA_OF_ASC_NODE":285.0207,"ARG_OF_PERICENTER":77.2312,"MEAN_ANOMALY":282.8756,"EPHEMERIS_TYPE":0,"CLASSIFICATION_TYPE":"U","NORAD_CAT_ID":62448,"ELEMENT_SET_NO":999,"REV_AT_EPOCH":5757,"BSTAR":0.00214806,"MEAN_MOTION_DOT":0.00063754,"MEAN_MOTION_DDOT":0},{"OBJECT_NAME":"STARLINK-32723","OBJECT_ID":"2024-251T","EPOCH":"2026-01-02T03:49:37.922880","MEAN_MOTION":15.3020232,"ECCENTRICITY":0.00011192,"INCLINATION":53.1608,"RA_OF_ASC_NODE":284.2383,"ARG_OF_PERICENTER":84.7613,"MEAN_ANOMALY":275.3516,"EPHEMERIS_TYPE":0,"CLASSIFICATION_TYPE":"U","NORAD_CAT_ID":62449,"ELEMENT_SET_NO":999,"REV_AT_EPOCH":5760,"BSTAR":0.0014576672,"MEAN_MOTION_DOT":0.00043066,"MEAN_MOTION_DDOT":0},{"OBJECT_NAME":"STARLINK-32722","OBJECT_ID":"2024-251U","EPOCH":"2026-01-02T17:48:30.688704","MEAN_MOTION":15.30224553,"ECCENTRICITY":0.0001677,"INCLINATION":53.1594,"RA_OF_ASC_NODE":281.4695,"ARG_OF_PERICENTER":86.037,"MEAN_ANOMALY":274.0822,"EPHEMERIS_TYPE":0,"CLASSIFICATION_TYPE":"U","NORAD_CAT_ID":62450,"ELEMENT_SET_NO":999,"REV_AT_EPOCH":5748,"BSTAR":0.0016401,"MEAN_MOTION_DOT":0.00048571,"MEAN_MOTION_DDOT":0},{"OBJECT_NAME":"STARLINK-32720","OBJECT_ID":"2024-251V","EPOCH":"2026-01-02T01:17:59.434368","MEAN_MOTION":15.30211055,"ECCENTRICITY":9.237e-5,"INCLINATION":53.1608,"RA_OF_ASC_NODE":285.0026,"ARG_OF_PERICENTER":121.8521,"MEAN_ANOMALY":238.257,"EPHEMERIS_TYPE":0,"CLASSIFICATION_TYPE":"U","NORAD_CAT_ID":62451,"ELEMENT_SET_NO":999,"REV_AT_EPOCH":5737,"BSTAR":0.001003169,"MEAN_MOTION_DOT":0.0002948,"MEAN_MOTION_DDOT":0},{"OBJECT_NAME":"STARLINK-32656","OBJECT_ID":"2024-251W","EPOCH":"2026-01-02T01:39:13.906080","MEAN_MOTION":15.30201811,"ECCENTRICITY":8.759e-5,"INCLINATION":53.1588,"RA_OF_ASC_NODE":285.0897,"ARG_OF_PERICENTER":97.2862,"MEAN_ANOMALY":262.8239,"EPHEMERIS_TYPE":0,"CLASSIFICATION_TYPE":"U","NORAD_CAT_ID":62452,"ELEMENT_SET_NO":999,"REV_AT_EPOCH":5758,"BSTAR":0.0013481068,"MEAN_MOTION_DOT":0.00039784,"MEAN_MOTION_DDOT":0},{"OBJECT_NAME":"STARLINK-32690","OBJECT_ID":"2024-251X","EPOCH":"2026-01-02T17:43:57.027072","MEAN_MOTION":15.30228982,"ECCENTRICITY":0.0001697,"INCLINATION":53.159,"RA_OF_ASC_NODE":281.4509,"ARG_OF_PERICENTER":124.2964,"MEAN_ANOMALY":235.8198,"EPHEMERIS_TYPE":0,"CLASSIFICATION_TYPE":"U","NORAD_CAT_ID":62453,"ELEMENT_SET_NO":999,"REV_AT_EPOCH":5747,"BSTAR":0.0013196,"MEAN_MOTION_DOT":0.00038965,"MEAN_MOTION_DDOT":0},{"OBJECT_NAME":"STARLINK-11518 [DTC]","OBJECT_ID":"2024-254A","EPOCH":"2026-01-02T17:36:10.283904","MEAN_MOTION":15.70944387,"ECCENTRICITY":0.0001567,"INCLINATION":42.9989,"RA_OF_ASC_NODE":260.9376,"ARG_OF_PERICENTER":227.4405,"MEAN_ANOMALY":132.633,"EPHEMERIS_TYPE":0,"CLASSIFICATION_TYPE":"U","NORAD_CAT_ID":62462,"ELEMENT_SET_NO":999,"REV_AT_EPOCH":5903,"BSTAR":0.0028999,"MEAN_MOTION_DOT":0.00391435,"MEAN_MOTION_DDOT":0},{"OBJECT_NAME":"STARLINK-11455 [DTC]","OBJECT_ID":"2024-254B","EPOCH":"2026-01-02T17:43:49.338336","MEAN_MOTION":15.70904287,"ECCENTRICITY":0.0001378,"INCLINATION":42.9981,"RA_OF_ASC_NODE":260.9809,"ARG_OF_PERICENTER":254.4303,"MEAN_ANOMALY":105.6413,"EPHEMERIS_TYPE":0,"CLASSIFICATION_TYPE":"U","NORAD_CAT_ID":62463,"ELEMENT_SET_NO":999,"REV_AT_EPOCH":5902,"BSTAR":0.0024311,"MEAN_MOTION_DOT":0.00324878,"MEAN_MOTION_DDOT":0},{"OBJECT_NAME":"STARLINK-11459 [DTC]","OBJECT_ID":"2024-254C","EPOCH":"2026-01-01T10:09:32.150592","MEAN_MOTION":16.11295966,"ECCENTRICITY":0.0013758,"INCLINATION":42.9818,"RA_OF_ASC_NODE":260.1269,"ARG_OF_PERICENTER":229.9099,"MEAN_ANOMALY":130.0577,"EPHEMERIS_TYPE":0,"CLASSIFICATION_TYPE":"U","NORAD_CAT_ID":62464,"ELEMENT_SET_NO":999,"REV_AT_EPOCH":5890,"BSTAR":0.0013675,"MEAN_MOTION_DOT":0.0145643,"MEAN_MOTION_DDOT":0.00148}]
